GOES 6                  
1 14050U 83041A   24111.65579071  .00000037  00000+0  00000+0 0  9993
2 14050  11.4529 326.6129 0002766 161.9324 185.2114  1.00296042208118
